*******************************************************************************
Ephemeris / WWW_USER Wed Mar 14 15:32:03 2018 Pasadena, USA      / Horizons    
*******************************************************************************
Target body name: Mercury (199)                   {source: DE431mx}
Center body name: Solar System Barycenter (0)     {source: DE431mx}
Center-site name: BODY CENTER
*******************************************************************************
Start time      : A.D. 2000-Jan-01 00:00:00.0000 TDB
Stop  time      : A.D. 2001-Jan-01 00:00:00.0000 TDB
Step-size       : 7200 minutes
*******************************************************************************
Center geodetic : 0.00000000,0.00000000,0.0000000 {E-lon(deg),Lat(deg),Alt(km)}
Center cylindric: 0.00000000,0.00000000,0.0000000 {E-lon(deg),Dxy(km),Dz(km)}
Center radii    : (undefined)                                                  
Output units    : AU-D                                                         
Output type     : GEOMETRIC cartesian states
Output format   : 2 (position and velocity)
Reference frame : ICRF/J2000.0                                                 
Coordinate systm: Ecliptic and Mean Equinox of Reference Epoch                 
*******************************************************************************
JDTDB
   X     Y     Z
   VX    VY    VZ
*******************************************************************************
$$SOE
2451754.500000000 = A.D. 2000-Jul-29 00:00:00.0000 TDB 
   3.334532687390185E-01  5.073051164786680E-02 -2.647499630673992E-02
  -9.924138116622169E-03  2.902845458938872E-02  3.283195820967121E-03
2451759.500000000 = A.D. 2000-Aug-03 00:00:00.0000 TDB 
   2.529577360633604E-01  1.857645838404138E-01 -8.050928842546519E-03
  -2.216607588761269E-02  2.389329973943038E-02  3.987322594717640E-03
2451764.500000000 = A.D. 2000-Aug-08 00:00:00.0000 TDB 
   1.166910551610367E-01  2.786002406193230E-01  1.204485313877050E-02
  -3.143766347293220E-02  1.226447628060852E-02  3.888345007852294E-03
2451769.500000000 = A.D. 2000-Aug-13 00:00:00.0000 TDB 
  -4.913801621956232E-02  3.022920204414704E-01  2.920559650954497E-02
  -3.349197691819929E-02 -2.924699420437718E-03  2.836085018890380E-03
2451774.500000000 = A.D. 2000-Aug-18 00:00:00.0000 TDB 
  -2.052353883942725E-01  2.527930912738728E-01  3.949411824731650E-02
  -2.790076306436712E-02 -1.614804253241143E-02  1.242672893637507E-03
2451779.500000000 = A.D. 2000-Aug-23 00:00:00.0000 TDB 
  -3.211960252643965E-01  1.498230347146754E-01  4.173060661268464E-02
  -1.812606179312444E-02 -2.409281042754156E-02 -3.035092729902465E-04
2451784.500000000 = A.D. 2000-Aug-28 00:00:00.0000 TDB 
  -3.854866183448459E-01  2.054592750398310E-02  3.707553051591244E-02
  -7.680201898819446E-03 -2.686774269621181E-02 -1.488966470661530E-03
2451789.500000000 = A.D. 2000-Sep-02 00:00:00.0000 TDB 
  -3.999741471204801E-01 -1.126646028377655E-01  2.752796598640089E-02
   1.620785041162898E-03 -2.592037635833927E-02 -2.265264754043515E-03
2451794.500000000 = A.D. 2000-Sep-07 00:00:00.0000 TDB 
  -3.721857270048896E-01 -2.347087849061182E-01  1.501229900370075E-02
   9.193694521852987E-03 -2.258781078921012E-02 -2.688102820692913E-03
2451799.500000000 = A.D. 2000-Sep-12 00:00:00.0000 TDB 
  -3.110135239642210E-01 -3.360903223200472E-01  1.120458124811483E-03
   1.498486472911572E-02 -1.777206846510225E-02 -2.826241439054454E-03
2451804.500000000 = A.D. 2000-Sep-17 00:00:00.0000 TDB 
  -2.251492512787920E-01 -4.108877415530560E-01 -1.286605373522786E-02
   1.908805857993107E-02 -1.202421778591151E-02 -2.733303626899302E-03
2451809.500000000 = A.D. 2000-Sep-22 00:00:00.0000 TDB 
  -1.228023742028780E-01 -4.553422175447722E-01 -2.588666730784414E-02
   2.158716604109398E-02 -5.678564130409887E-03 -2.444299964891504E-03
2451814.500000000 = A.D. 2000-Sep-27 00:00:00.0000 TDB 
  -1.192154158698364E-02 -4.670491886991190E-01 -3.701539072677545E-02
   2.249671416591958E-02  1.042650042010162E-03 -1.978720706979067E-03
2451819.500000000 = A.D. 2000-Oct-02 00:00:00.0000 TDB 
   9.938793398484025E-02 -4.446051144983345E-01 -4.539363473333946E-02
   2.173649306765822E-02  7.948743293944413E-03 -1.344781973343619E-03
2451824.500000000 = A.D. 2000-Oct-07 00:00:00.0000 TDB 
   2.023515543463035E-01 -3.876425991054572E-01 -5.018603696662152E-02
   1.911737912939414E-02  1.480143817793011E-02 -5.445907466107529E-04
2451829.500000000 = A.D. 2000-Oct-12 00:00:00.0000 TDB 
   2.869712941377781E-01 -2.973164334824918E-01 -5.056928444090761E-02
   1.434160255235507E-02  2.120836302826020E-02  4.171303213044188E-04
2451834.500000000 = A.D. 2000-Oct-17 00:00:00.0000 TDB 
   3.415794345745345E-01 -1.774595441290955E-01 -4.578559145338049E-02
   7.057084177875425E-03  2.645638115620493E-02  1.514439992886130E-03
2451839.500000000 = A.D. 2000-Oct-22 00:00:00.0000 TDB 
   3.530205932443533E-01 -3.675360868127861E-02 -3.533672502771940E-02
  -2.916190627477133E-03  2.927847201115369E-02  2.660357380940114E-03
2451844.500000000 = A.D. 2000-Oct-27 00:00:00.0000 TDB 
   3.088661453323670E-01  1.080545039663339E-01 -1.945000438650658E-02
  -1.495581159034091E-02  2.773055074372850E-02  3.638942620035274E-03
2451849.500000000 = A.D. 2000-Nov-01 00:00:00.0000 TDB 
   2.040405231273035E-01  2.299391652379191E-01  1.326872152997024E-04
  -2.656541261098313E-02  1.989287252619238E-02  4.064246104810941E-03
2451854.500000000 = A.D. 2000-Nov-06 00:00:00.0000 TDB 
   5.142494993782804E-02  2.969878722190509E-01  1.962212094132535E-02
  -3.328680851322161E-02  6.221094973148105E-03  3.564303416845007E-03
2451859.500000000 = A.D. 2000-Nov-11 00:00:00.0000 TDB 
  -1.151568725850726E-01  2.898451982915011E-01  3.433268946107061E-02
  -3.199466548638311E-02 -8.808144289994808E-03  2.217959283783803E-03
2451864.500000000 = A.D. 2000-Nov-16 00:00:00.0000 TDB 
  -2.575529654876225E-01  2.154329152991209E-01  4.132811693639580E-02
  -2.420317045280470E-02 -2.006156897226549E-02  5.835303893024310E-04
2451869.500000000 = A.D. 2000-Nov-21 00:00:00.0000 TDB 
  -3.529621525421068E-01  9.862828564876451E-02  4.054786763507882E-02
  -1.382445698212089E-02 -2.576821625088504E-02 -8.352437218775526E-04
2451874.500000000 = A.D. 2000-Nov-26 00:00:00.0000 TDB 
  -3.963400947453908E-01 -3.451416286664488E-02  3.365735975365940E-02
  -3.712758305182165E-03 -2.684637360246280E-02 -1.851407142184922E-03
2451879.500000000 = A.D. 2000-Dec-01 00:00:00.0000 TDB 
  -3.926121623956292E-01 -1.646405520514426E-01  2.268968632490790E-02
   4.914649386140709E-03 -2.479340210221139E-02 -2.475554192005105E-03
2451884.500000000 = A.D. 2000-Dec-06 00:00:00.0000 TDB 
  -3.501856506882709E-01 -2.791926901160052E-01  9.442380737143308E-03
   1.175675974685721E-02 -2.077255970186199E-02 -2.775084535461579E-03
2451889.500000000 = A.D. 2000-Dec-11 00:00:00.0000 TDB 
  -2.779626212984017E-01 -3.703406085279893E-01 -4.627862948815541E-03
   1.684959797648696E-02 -1.552666933521213E-02 -2.813986240005653E-03
2451894.500000000 = A.D. 2000-Dec-16 00:00:00.0000 TDB 
  -1.844339164564484E-01 -4.331738891728243E-01 -1.834059330681705E-02
   2.029429731971696E-02 -9.503951501419163E-03 -2.638157031398567E-03
2451899.500000000 = A.D. 2000-Dec-21 00:00:00.0000 TDB 
  -7.766168498166032E-02 -4.645528954514723E-01 -3.069936204089661E-02
   2.215097953383688E-02 -2.982375735340017E-03 -2.275822607811663E-03
2451904.500000000 = A.D. 2000-Dec-26 00:00:00.0000 TDB 
   3.439865815769804E-02 -4.625002567933044E-01 -4.081246366000256E-02
   2.239792345170491E-02  3.837693248311535E-03 -1.741357298052560E-03
2451909.500000000 = A.D. 2000-Dec-31 00:00:00.0000 TDB 
   1.434356649635050E-01 -4.260066773693894E-01 -4.783459772073687E-02
   2.091194256130263E-02  1.075663410939319E-02 -1.039761898653324E-03
